start=new Date('2023-02-21T00:00:00.000Z').valueOf();
sats=[{"REF_FRAME":"TEME","FILE":"3817288","MEAN_MOTION":"15.41880619","OBJECT_NAME":"STARLINK-5417","BSTAR":"-0.02281300000000","MEAN_ANOMALY":"130.9674","OBJECT_ID":"2022-175AZ","COUNTRY_CODE":"US","SITE":"AFETR","PERIOD":"93.392","MEAN_MOTION_DOT":"-0.00904378","APOAPSIS":"441.534","SEMIMAJOR_AXIS":"6818.696","MEAN_MOTION_DDOT":"0.0000000000000","CLASSIFICATION_TYPE":"U","NORAD_CAT_ID":"54805","MEAN_ELEMENT_THEORY":"SGP4","OBJECT_TYPE":"PAYLOAD","GP_ID":"226193266","ECCENTRICITY":"0.00014260","EPOCH":"2023-02-21T02:00:01.000224","EPHEMERIS_TYPE":"0","ELEMENT_SET_NO":"999","REV_AT_EPOCH":"997","TLE_LINE2":"2 54805  53.2144 345.4732 0001426  93.5458 130.9674 15.41880619  9976","RA_OF_ASC_NODE":"345.4732","DECAY_DATE":null,"ARG_OF_PERICENTER":"93.5458","TLE_LINE1":"1 54805U 22175AZ  23052.08334491 -.00904378  00000-0 -22813-1 0  9993","TIME_SYSTEM":"UTC","LAUNCH_DATE":"2022-12-17","CENTER_NAME":"EARTH","RCS_SIZE":"LARGE","INCLINATION":"53.2144","PERIAPSIS":"439.589"},{"MEAN_ANOMALY":"301.6967","OBJECT_ID":"2022-175BA","BSTAR":"-0.02327800000000","OBJECT_NAME":"STARLINK-5412","MEAN_MOTION":"15.42982731","FILE":"3816105","REF_FRAME":"TEME","MEAN_MOTION_DDOT":"0.0000000000000","CLASSIFICATION_TYPE":"U","SEMIMAJOR_AXIS":"6815.449","APOAPSIS":"438.145","MEAN_MOTION_DOT":"-0.00953304","PERIOD":"93.326","COUNTRY_CODE":"US","SITE":"AFETR","REV_AT_EPOCH":"995","ELEMENT_SET_NO":"999","EPHEMERIS_TYPE":"0","EPOCH":"2023-02-20T22:00:01.999584","ECCENTRICITY":"0.00012190","GP_ID":"226168314","OBJECT_TYPE":"PAYLOAD","MEAN_ELEMENT_THEORY":"SGP4","NORAD_CAT_ID":"54806","PERIAPSIS":"436.483","INCLINATION":"53.2149","RCS_SIZE":"LARGE","CENTER_NAME":"EARTH","LAUNCH_DATE":"2022-12-17","TIME_SYSTEM":"UTC","TLE_LINE1":"1 54806U 22175BA  23051.91668981 -.00953304  00000-0 -23278-1 0  9998","ARG_OF_PERICENTER":"90.9570","DECAY_DATE":null,"RA_OF_ASC_NODE":"346.2336","TLE_LINE2":"2 54806  53.2149 346.2336 0001219  90.9570 301.6967 15.42982731  9956"},{"RA_OF_ASC_NODE":"346.2411","TLE_LINE2":"2 54807  53.2151 346.2411 0001222  93.7727 294.3817 15.42734926  9956","ARG_OF_PERICENTER":"93.7727","DECAY_DATE":null,"LAUNCH_DATE":"2022-12-17","CENTER_NAME":"EARTH","TIME_SYSTEM":"UTC","TLE_LINE1":"1 54807U 22175BB  23051.91668981 -.00953000  00000-0 -23466-1 0  9991","PERIAPSIS":"437.211","INCLINATION":"53.2151","RCS_SIZE":"LARGE","MEAN_ELEMENT_THEORY":"SGP4","NORAD_CAT_ID":"54807","OBJECT_TYPE":"PAYLOAD","GP_ID":"226168340","EPOCH":"2023-02-20T22:00:01.999584","ECCENTRICITY":"0.00012220","REV_AT_EPOCH":"995","ELEMENT_SET_NO":"999","EPHEMERIS_TYPE":"0","PERIOD":"93.341","MEAN_MOTION_DOT":"-0.00953000","COUNTRY_CODE":"US","SITE":"AFETR","MEAN_MOTION_DDOT":"0.0000000000000","CLASSIFICATION_TYPE":"U","SEMIMAJOR_AXIS":"6816.179","APOAPSIS":"438.877","FILE":"3816106","REF_FRAME":"TEME","MEAN_MOTION":"15.42734926","OBJECT_NAME":"STARLINK-5410","MEAN_ANOMALY":"294.3817","OBJECT_ID":"2022-175BB","BSTAR":"-0.02346600000000"},{"EPHEMERIS_TYPE":"0","ELEMENT_SET_NO":"999","REV_AT_EPOCH":"998","ECCENTRICITY":"0.00006460","EPOCH":"2023-02-20T22:00:01.999584","OBJECT_TYPE":"PAYLOAD","GP_ID":"226170423","NORAD_CAT_ID":"54808","MEAN_ELEMENT_THEORY":"SGP4","RCS_SIZE":"LARGE","PERIAPSIS":"349.252","INCLINATION":"53.2131","TLE_LINE1":"1 54808U 22175BC  23051.91668981 -.00011537  00000-0 -77821-4 0  9999","TIME_SYSTEM":"UTC","LAUNCH_DATE":"2022-12-17","CENTER_NAME":"EARTH","DECAY_DATE":null,"ARG_OF_PERICENTER":"106.5041","TLE_LINE2":"2 54808  53.2131 343.9231 0000646 106.5041 351.1816 15.73225861  9981","RA_OF_ASC_NODE":"343.9231","BSTAR":"-0.00007782100000","MEAN_ANOMALY":"351.1816","OBJECT_ID":"2022-175BC","OBJECT_NAME":"STARLINK-5413","MEAN_MOTION":"15.73225861","REF_FRAME":"TEME","FILE":"3816171","APOAPSIS":"350.121","SEMIMAJOR_AXIS":"6727.821","MEAN_MOTION_DDOT":"0.0000000000000","CLASSIFICATION_TYPE":"U","SITE":"AFETR","COUNTRY_CODE":"US","PERIOD":"91.532","MEAN_MOTION_DOT":"-0.00011537"},{"INCLINATION":"53.2147","PERIAPSIS":"435.759","RCS_SIZE":"LARGE","CENTER_NAME":"EARTH","LAUNCH_DATE":"2022-12-17","TIME_SYSTEM":"UTC","TLE_LINE1":"1 54809U 22175BD  23051.91668981 -.00951378  00000-0 -23034-1 0  9990","ARG_OF_PERICENTER":"95.5521","DECAY_DATE":null,"RA_OF_ASC_NODE":"346.2238","TLE_LINE2":"2 54809  53.2147 346.2238 0001221  95.5521 301.4896 15.43228351  9959","REV_AT_EPOCH":"995","ELEMENT_SET_NO":"999","EPHEMERIS_TYPE":"0","EPOCH":"2023-02-20T22:00:01.999584","ECCENTRICITY":"0.00012210","GP_ID":"226170030","OBJECT_TYPE":"PAYLOAD","MEAN_ELEMENT_THEORY":"SGP4","NORAD_CAT_ID":"54809","MEAN_MOTION_DDOT":"0.0000000000000","CLASSIFICATION_TYPE":"U","SEMIMAJOR_AXIS":"6814.726","APOAPSIS":"437.423","MEAN_MOTION_DOT":"-0.00951378","PERIOD":"93.311","COUNTRY_CODE":"US","SITE":"AFETR","MEAN_ANOMALY":"301.4896","OBJECT_ID":"2022-175BD","BSTAR":"-0.02303400000000","OBJECT_NAME":"STARLINK-5414","MEAN_MOTION":"15.43228351","FILE":"3816178","REF_FRAME":"TEME"},{"RCS_SIZE":"LARGE","INCLINATION":"53.2137","PERIAPSIS":"379.694","TLE_LINE1":"1 54810U 22175BE  23051.58334491 -.01096101  00000-0 -13319-1 0  9991","TIME_SYSTEM":"UTC","LAUNCH_DATE":"2022-12-17","CENTER_NAME":"EARTH","DECAY_DATE":null,"ARG_OF_PERICENTER":"100.6288","TLE_LINE2":"2 54810  53.2137 345.7403 0001143 100.6288 184.2381 15.62490936  1307","RA_OF_ASC_NODE":"345.7403","EPHEMERIS_TYPE":"0","ELEMENT_SET_NO":"999","REV_AT_EPOCH":"130","ECCENTRICITY":"0.00011430","EPOCH":"2023-02-20T14:00:01.000224","OBJECT_TYPE":"PAYLOAD","GP_ID":"226160929","MEAN_ELEMENT_THEORY":"SGP4","NORAD_CAT_ID":"54810","APOAPSIS":"381.239","SEMIMAJOR_AXIS":"6758.601","CLASSIFICATION_TYPE":"U","MEAN_MOTION_DDOT":"0.0000000000000","COUNTRY_CODE":"US","SITE":"AFETR","PERIOD":"92.161","MEAN_MOTION_DOT":"-0.01096101","BSTAR":"-0.01331900000000","MEAN_ANOMALY":"184.2381","OBJECT_ID":"2022-175BE","OBJECT_NAME":"STARLINK-5408","MEAN_MOTION":"15.62490936","REF_FRAME":"TEME","FILE":"3815761"},{"MEAN_MOTION":"15.61299768","FILE":"3817289","REF_FRAME":"TEME","MEAN_ANOMALY":"139.2741","OBJECT_ID":"2022-175BF","BSTAR":"-0.01420500000000","OBJECT_NAME":"STARLINK-5424","MEAN_MOTION_DOT":"-0.01113979","PERIOD":"92.231","COUNTRY_CODE":"US","SITE":"AFETR","CLASSIFICATION_TYPE":"U","MEAN_MOTION_DDOT":"0.0000000000000","SEMIMAJOR_AXIS":"6762.039","APOAPSIS":"384.707","OBJECT_TYPE":"PAYLOAD","GP_ID":"226193447","MEAN_ELEMENT_THEORY":"SGP4","NORAD_CAT_ID":"54811","REV_AT_EPOCH":"1000","ELEMENT_SET_NO":"999","EPHEMERIS_TYPE":"0","EPOCH":"2023-02-21T02:00:01.000224","ECCENTRICITY":"0.00011880","ARG_OF_PERICENTER":"79.5581","DECAY_DATE":null,"RA_OF_ASC_NODE":"343.3060","TLE_LINE2":"2 54811  53.2136 343.3060 0001188  79.5581 139.2741 15.61299768 10005","INCLINATION":"53.2136","PERIAPSIS":"383.100","RCS_SIZE":"LARGE","LAUNCH_DATE":"2022-12-17","CENTER_NAME":"EARTH","TIME_SYSTEM":"UTC","TLE_LINE1":"1 54811U 22175BF  23052.08334491 -.01113979  00000-0 -14205-1 0  9996"},{"GP_ID":"226160680","OBJECT_TYPE":"PAYLOAD","MEAN_ELEMENT_THEORY":"SGP4","NORAD_CAT_ID":"54820","REV_AT_EPOCH":"944","ELEMENT_SET_NO":"999","EPHEMERIS_TYPE":"0","EPOCH":"2023-02-20T03:20:43.022976","ECCENTRICITY":"0.00008670","ARG_OF_PERICENTER":"259.7427","DECAY_DATE":null,"RA_OF_ASC_NODE":"64.4625","TLE_LINE2":"2 54820  43.0003  64.4625 0000867 259.7427 100.3318 15.04486879  9440","PERIAPSIS":"552.482","INCLINATION":"43.0003","RCS_SIZE":"LARGE","CENTER_NAME":"EARTH","LAUNCH_DATE":"2022-12-28","TIME_SYSTEM":"UTC","TLE_LINE1":"1 54820U 22177A   23051.13938684 -.00000443  00000-0 -16593-4 0  9992","MEAN_MOTION":"15.04486879","FILE":"3815761","REF_FRAME":"TEME","OBJECT_ID":"2022-177A","MEAN_ANOMALY":"100.3318","BSTAR":"-0.00001659300000","OBJECT_NAME":"STARLINK-5382","MEAN_MOTION_DOT":"-0.00000443","PERIOD":"95.714","COUNTRY_CODE":"US","SITE":"AFETR","CLASSIFICATION_TYPE":"U","MEAN_MOTION_DDOT":"0.0000000000000","SEMIMAJOR_AXIS":"6931.218","APOAPSIS":"553.684"},{"OBJECT_NAME":"STARLINK-5385","MEAN_ANOMALY":"73.0787","OBJECT_ID":"2022-177B","BSTAR":"-0.00007652900000","FILE":"3817292","REF_FRAME":"TEME","MEAN_MOTION":"15.04488341","CLASSIFICATION_TYPE":"U","MEAN_MOTION_DDOT":"0.0000000000000","SEMIMAJOR_AXIS":"6931.214","APOAPSIS":"553.666","PERIOD":"95.714","MEAN_MOTION_DOT":"-0.00001296","COUNTRY_CODE":"US","SITE":"AFETR","EPOCH":"2023-02-20T22:22:40.020096","ECCENTRICITY":"0.00008470","REV_AT_EPOCH":"858","ELEMENT_SET_NO":"999","EPHEMERIS_TYPE":"0","NORAD_CAT_ID":"54821","MEAN_ELEMENT_THEORY":"SGP4","OBJECT_TYPE":"PAYLOAD","GP_ID":"226193461","LAUNCH_DATE":"2022-12-28","CENTER_NAME":"EARTH","TIME_SYSTEM":"UTC","TLE_LINE1":"1 54821U 22177B   23051.93240764 -.00001296  00000-0 -76529-4 0  9998","INCLINATION":"43.0011","PERIAPSIS":"552.492","RCS_SIZE":"LARGE","RA_OF_ASC_NODE":"60.0935","TLE_LINE2":"2 54821  43.0011  60.0935 0000847 286.9963  73.0787 15.04488341  8587","ARG_OF_PERICENTER":"286.9963","DECAY_DATE":null},{"INCLINATION":"43.0003","PERIAPSIS":"552.344","RCS_SIZE":"LARGE","LAUNCH_DATE":"2022-12-28","CENTER_NAME":"EARTH","TIME_SYSTEM":"UTC","TLE_LINE1":"1 54822U 22177C   23051.71982199  .00007323  00000-0  52850-3 0  9995","ARG_OF_PERICENTER":"271.9550","DECAY_DATE":null,"RA_OF_ASC_NODE":"61.0753","TLE_LINE2":"2 54822  43.0003  61.0753 0001017 271.9550  88.1177 15.04498017  8552","REV_AT_EPOCH":"855","ELEMENT_SET_NO":"999","EPHEMERIS_TYPE":"0","EPOCH":"2023-02-20T17:16:32.619936","ECCENTRICITY":"0.00010170","OBJECT_TYPE":"PAYLOAD","GP_ID":"226193190","MEAN_ELEMENT_THEORY":"SGP4","NORAD_CAT_ID":"54822","MEAN_MOTION_DDOT":"0.0000000000000","CLASSIFICATION_TYPE":"U","SEMIMAJOR_AXIS":"6931.184","APOAPSIS":"553.754","PERIOD":"95.713","MEAN_MOTION_DOT":"0.00007323","SITE":"AFETR","COUNTRY_CODE":"US","OBJECT_ID":"2022-177C","MEAN_ANOMALY":"88.1177","BSTAR":"0.00052850000000","OBJECT_NAME":"STARLINK-5101","MEAN_MOTION":"15.04498017","FILE":"3817290","REF_FRAME":"TEME"}];
